start=new Date('2022-09-05T00:00:00.000Z').valueOf();
sats=[{"TLE_LINE2":"2 46591  53.0549 154.1261 0001762  71.4961 288.6219 15.06403227105537","REV_AT_EPOCH":"10553","BSTAR":"0.00009658200000","MEAN_MOTION_DDOT":"0.0000000000000","EPHEMERIS_TYPE":"0","MEAN_MOTION_DOT":"0.00001157","MEAN_MOTION":"15.06403227","ELEMENT_SET_NO":"999","PERIAPSIS":"545.983","CLASSIFICATION_TYPE":"U","MEAN_ELEMENT_THEORY":"SGP4","REF_FRAME":"TEME","SEMIMAJOR_AXIS":"6925.339","RCS_SIZE":"LARGE","GP_ID":"211716174","FILE":"3557975","APOAPSIS":"548.424","COUNTRY_CODE":"US","OBJECT_ID":"2020-070BM","NORAD_CAT_ID":"46591","DECAY_DATE":null,"OBJECT_TYPE":"PAYLOAD","TLE_LINE1":"1 46591U 20070BM  22247.15932108  .00001157  00000-0  96582-4 0  9998","OBJECT_NAME":"STARLINK-1755","CENTER_NAME":"EARTH","PERIOD":"95.592","SITE":"AFETR","LAUNCH_DATE":"2020-10-06","INCLINATION":"53.0549","ECCENTRICITY":"0.00017620","EPOCH":"2022-09-04T03:49:25.341312","MEAN_ANOMALY":"288.6219","TIME_SYSTEM":"UTC","RA_OF_ASC_NODE":"154.1261","ARG_OF_PERICENTER":"71.4961"},{"EPHEMERIS_TYPE":"0","TLE_LINE2":"2 46671  53.0537 241.8588 0001898  61.3442 298.7737 15.06418756103832","REV_AT_EPOCH":"10383","MEAN_MOTION_DDOT":"0.0000000000000","BSTAR":"0.00034955000000","MEAN_MOTION":"15.06418756","ELEMENT_SET_NO":"999","MEAN_MOTION_DOT":"0.00004931","REF_FRAME":"TEME","SEMIMAJOR_AXIS":"6925.291","PERIAPSIS":"545.842","CLASSIFICATION_TYPE":"U","MEAN_ELEMENT_THEORY":"SGP4","RCS_SIZE":"LARGE","GP_ID":"211749006","FILE":"3558394","OBJECT_ID":"2020-073B","APOAPSIS":"548.470","COUNTRY_CODE":"US","DECAY_DATE":null,"NORAD_CAT_ID":"46671","TLE_LINE1":"1 46671U 20073B   22247.71870070  .00004931  00000-0  34955-3 0  9999","OBJECT_TYPE":"PAYLOAD","CENTER_NAME":"EARTH","OBJECT_NAME":"STARLINK-1715","SITE":"AFETR","PERIOD":"95.591","LAUNCH_DATE":"2020-10-18","INCLINATION":"53.0537","ECCENTRICITY":"0.00018980","EPOCH":"2022-09-04T17:14:55.740480","MEAN_ANOMALY":"298.7737","TIME_SYSTEM":"UTC","RA_OF_ASC_NODE":"241.8588","ARG_OF_PERICENTER":"61.3442"},{"TIME_SYSTEM":"UTC","MEAN_ANOMALY":"292.5628","RA_OF_ASC_NODE":"236.8437","ARG_OF_PERICENTER":"67.5542","PERIOD":"95.592","SITE":"AFETR","LAUNCH_DATE":"2020-10-18","INCLINATION":"53.0544","EPOCH":"2022-09-04T16:03:53.510112","ECCENTRICITY":"0.00017110","GP_ID":"211749742","FILE":"3558394","APOAPSIS":"548.376","COUNTRY_CODE":"US","OBJECT_ID":"2020-073C","NORAD_CAT_ID":"46672","DECAY_DATE":null,"OBJECT_TYPE":"PAYLOAD","TLE_LINE1":"1 46672U 20073C   22247.66936933  .00001303  00000-0  10632-3 0  9991","CENTER_NAME":"EARTH","OBJECT_NAME":"STARLINK-1716","REV_AT_EPOCH":"10390","TLE_LINE2":"2 46672  53.0544 236.8437 0001711  67.5542 292.5628 15.06407289103909","BSTAR":"0.00010632000000","MEAN_MOTION_DDOT":"0.0000000000000","EPHEMERIS_TYPE":"0","MEAN_MOTION":"15.06407289","ELEMENT_SET_NO":"999","MEAN_MOTION_DOT":"0.00001303","CLASSIFICATION_TYPE":"U","PERIAPSIS":"546.006","MEAN_ELEMENT_THEORY":"SGP4","REF_FRAME":"TEME","SEMIMAJOR_AXIS":"6925.326","RCS_SIZE":"LARGE"},{"ARG_OF_PERICENTER":"76.5131","TIME_SYSTEM":"UTC","MEAN_ANOMALY":"283.6020","RA_OF_ASC_NODE":"253.2228","INCLINATION":"53.0530","ECCENTRICITY":"0.00014500","EPOCH":"2022-09-04T09:15:52.529760","SITE":"AFETR","PERIOD":"95.592","LAUNCH_DATE":"2020-10-18","DECAY_DATE":null,"NORAD_CAT_ID":"46673","CENTER_NAME":"EARTH","TLE_LINE1":"1 46673U 20073D   22247.38602465  .00002436  00000-0  18239-3 0  9990","OBJECT_TYPE":"PAYLOAD","OBJECT_NAME":"STARLINK-1717","GP_ID":"211716442","FILE":"3557975","OBJECT_ID":"2020-073D","APOAPSIS":"548.208","COUNTRY_CODE":"US","REF_FRAME":"TEME","SEMIMAJOR_AXIS":"6925.339","PERIAPSIS":"546.200","CLASSIFICATION_TYPE":"U","MEAN_ELEMENT_THEORY":"SGP4","RCS_SIZE":"LARGE","EPHEMERIS_TYPE":"0","TLE_LINE2":"2 46673  53.0530 253.2228 0001450  76.5131 283.6020 15.06403208103645","REV_AT_EPOCH":"10364","BSTAR":"0.00018239000000","MEAN_MOTION_DDOT":"0.0000000000000","MEAN_MOTION_DOT":"0.00002436","MEAN_MOTION":"15.06403208","ELEMENT_SET_NO":"999"},{"MEAN_MOTION_DDOT":"0.0000000000000","BSTAR":"-0.00010621000000","REV_AT_EPOCH":"10390","TLE_LINE2":"2 46674  53.0532 236.7158 0001490  64.9728 295.1415 15.06429047103907","EPHEMERIS_TYPE":"0","MEAN_MOTION":"15.06429047","MEAN_MOTION_DOT":"-0.00001864","ELEMENT_SET_NO":"999","MEAN_ELEMENT_THEORY":"SGP4","PERIAPSIS":"546.093","CLASSIFICATION_TYPE":"U","SEMIMAJOR_AXIS":"6925.260","REF_FRAME":"TEME","RCS_SIZE":"LARGE","FILE":"3558394","GP_ID":"211748758","COUNTRY_CODE":"US","APOAPSIS":"548.156","OBJECT_ID":"2020-073E","NORAD_CAT_ID":"46674","DECAY_DATE":null,"TLE_LINE1":"1 46674U 20073E   22247.69515178 -.00001864  00000-0 -10621-3 0  9992","OBJECT_TYPE":"PAYLOAD","OBJECT_NAME":"STARLINK-1718","CENTER_NAME":"EARTH","PERIOD":"95.590","SITE":"AFETR","LAUNCH_DATE":"2020-10-18","ECCENTRICITY":"0.00014900","EPOCH":"2022-09-04T16:41:01.113792","INCLINATION":"53.0532","MEAN_ANOMALY":"295.1415","TIME_SYSTEM":"UTC","RA_OF_ASC_NODE":"236.7158","ARG_OF_PERICENTER":"64.9728"},{"RCS_SIZE":"LARGE","REF_FRAME":"TEME","SEMIMAJOR_AXIS":"6925.354","CLASSIFICATION_TYPE":"U","PERIAPSIS":"546.043","MEAN_ELEMENT_THEORY":"SGP4","MEAN_MOTION":"15.06398187","ELEMENT_SET_NO":"999","MEAN_MOTION_DOT":"0.00002258","EPHEMERIS_TYPE":"0","REV_AT_EPOCH":"10385","TLE_LINE2":"2 46675  53.0530 238.2261 0001698  62.9861 297.1301 15.06398187103854","MEAN_MOTION_DDOT":"0.0000000000000","BSTAR":"0.00017046000000","OBJECT_NAME":"STARLINK-1720","TLE_LINE1":"1 46675U 20073F   22247.35975500  .00002258  00000-0  17046-3 0  9999","OBJECT_TYPE":"PAYLOAD","CENTER_NAME":"EARTH","DECAY_DATE":null,"NORAD_CAT_ID":"46675","OBJECT_ID":"2020-073F","APOAPSIS":"548.395","COUNTRY_CODE":"US","GP_ID":"211716683","FILE":"3557975","INCLINATION":"53.0530","ECCENTRICITY":"0.00016980","EPOCH":"2022-09-04T08:38:02.832000","LAUNCH_DATE":"2020-10-18","SITE":"AFETR","PERIOD":"95.592","ARG_OF_PERICENTER":"62.9861","RA_OF_ASC_NODE":"238.2261","MEAN_ANOMALY":"297.1301","TIME_SYSTEM":"UTC"},{"MEAN_MOTION":"15.06400240","MEAN_MOTION_DOT":"0.00002244","ELEMENT_SET_NO":"999","EPHEMERIS_TYPE":"0","MEAN_MOTION_DDOT":"0.0000000000000","BSTAR":"0.00016947000000","REV_AT_EPOCH":"10434","TLE_LINE2":"2 46677  53.0540 237.9401 0001457  77.3072 282.8080 15.06400240104340","RCS_SIZE":"LARGE","SEMIMAJOR_AXIS":"6925.348","REF_FRAME":"TEME","MEAN_ELEMENT_THEORY":"SGP4","PERIAPSIS":"546.204","CLASSIFICATION_TYPE":"U","OBJECT_ID":"2020-073H","COUNTRY_CODE":"US","APOAPSIS":"548.222","FILE":"3558158","GP_ID":"211724020","TLE_LINE1":"1 46677U 20073H   22247.42241186  .00002244  00000-0  16947-3 0  9999","CENTER_NAME":"EARTH","OBJECT_TYPE":"PAYLOAD","OBJECT_NAME":"STARLINK-1766","DECAY_DATE":null,"NORAD_CAT_ID":"46677","LAUNCH_DATE":"2020-10-18","SITE":"AFETR","PERIOD":"95.592","EPOCH":"2022-09-04T10:08:16.384704","ECCENTRICITY":"0.00014570","INCLINATION":"53.0540","RA_OF_ASC_NODE":"237.9401","TIME_SYSTEM":"UTC","MEAN_ANOMALY":"282.8080","ARG_OF_PERICENTER":"77.3072"},{"OBJECT_ID":"2020-073K","COUNTRY_CODE":"US","APOAPSIS":"548.471","FILE":"3558394","GP_ID":"211749997","CENTER_NAME":"EARTH","TLE_LINE1":"1 46679U 20073K   22247.62697908  .00001257  00000-0  10326-3 0  9998","OBJECT_TYPE":"PAYLOAD","OBJECT_NAME":"STARLINK-1773","DECAY_DATE":null,"NORAD_CAT_ID":"46679","MEAN_MOTION":"15.06402153","ELEMENT_SET_NO":"999","MEAN_MOTION_DOT":"0.00001257","EPHEMERIS_TYPE":"0","BSTAR":"0.00010326000000","MEAN_MOTION_DDOT":"0.0000000000000","TLE_LINE2":"2 46679  53.0534 217.0233 0001825  60.3733 299.7438 15.06402153104172","REV_AT_EPOCH":"10417","RCS_SIZE":"LARGE","SEMIMAJOR_AXIS":"6925.342","REF_FRAME":"TEME","MEAN_ELEMENT_THEORY":"SGP4","PERIAPSIS":"545.943","CLASSIFICATION_TYPE":"U","RA_OF_ASC_NODE":"217.0233","TIME_SYSTEM":"UTC","MEAN_ANOMALY":"299.7438","ARG_OF_PERICENTER":"60.3733","LAUNCH_DATE":"2020-10-18","SITE":"AFETR","PERIOD":"95.592","ECCENTRICITY":"0.00018250","EPOCH":"2022-09-04T15:02:50.992512","INCLINATION":"53.0534"},{"INCLINATION":"53.0521","EPOCH":"2022-09-04T07:08:29.128704","ECCENTRICITY":"0.00016290","SITE":"AFETR","PERIOD":"95.592","LAUNCH_DATE":"2020-10-18","ARG_OF_PERICENTER":"72.1430","TIME_SYSTEM":"UTC","MEAN_ANOMALY":"287.9737","RA_OF_ASC_NODE":"253.5120","REF_FRAME":"TEME","SEMIMAJOR_AXIS":"6925.320","CLASSIFICATION_TYPE":"U","PERIAPSIS":"546.057","MEAN_ELEMENT_THEORY":"SGP4","RCS_SIZE":"LARGE","EPHEMERIS_TYPE":"0","TLE_LINE2":"2 46680  53.0521 253.5120 0001629  72.1430 287.9737 15.06409407103637","REV_AT_EPOCH":"10363","MEAN_MOTION_DDOT":"0.0000000000000","BSTAR":"0.00026926000000","MEAN_MOTION_DOT":"0.00003732","MEAN_MOTION":"15.06409407","ELEMENT_SET_NO":"999","DECAY_DATE":null,"NORAD_CAT_ID":"46680","OBJECT_NAME":"STARLINK-1774","TLE_LINE1":"1 46680U 20073L   22247.29755936  .00003732  00000-0  26926-3 0  9992","OBJECT_TYPE":"PAYLOAD","CENTER_NAME":"EARTH","GP_ID":"211717194","FILE":"3557975","OBJECT_ID":"2020-073L","APOAPSIS":"548.313","COUNTRY_CODE":"US"},{"LAUNCH_DATE":"2020-10-18","PERIOD":"95.592","SITE":"AFETR","INCLINATION":"53.0540","EPOCH":"2022-09-04T08:01:33.477600","ECCENTRICITY":"0.00016290","RA_OF_ASC_NODE":"253.3349","TIME_SYSTEM":"UTC","MEAN_ANOMALY":"294.3194","ARG_OF_PERICENTER":"65.7965","ELEMENT_SET_NO":"999","MEAN_MOTION":"15.06402799","MEAN_MOTION_DOT":"0.00000399","TLE_LINE2":"2 46681  53.0540 253.3349 0001629  65.7965 294.3194 15.06402799103637","REV_AT_EPOCH":"10363","MEAN_MOTION_DDOT":"0.0000000000000","BSTAR":"0.00004566100000","EPHEMERIS_TYPE":"0","RCS_SIZE":"LARGE","CLASSIFICATION_TYPE":"U","PERIAPSIS":"546.077","MEAN_ELEMENT_THEORY":"SGP4","REF_FRAME":"TEME","SEMIMAJOR_AXIS":"6925.340","APOAPSIS":"548.333","COUNTRY_CODE":"US","OBJECT_ID":"2020-073M","GP_ID":"211716183","FILE":"3557975","OBJECT_NAME":"STARLINK-1775","TLE_LINE1":"1 46681U 20073M   22247.33441525  .00000399  00000-0  45661-4 0  9998","OBJECT_TYPE":"PAYLOAD","CENTER_NAME":"EARTH","NORAD_CAT_ID":"46681","DECAY_DATE":null}];
